start=new Date('2021-12-13T00:00:00.000Z').valueOf();
sats=[{"ARG_OF_PERICENTER":"77.0037","SITE":"AFETR","INCLINATION":"53.0563","EPHEMERIS_TYPE":"0","OBJECT_ID":"2020-001AV","REF_FRAME":"TEME","APOAPSIS":"548.115","TIME_SYSTEM":"UTC","EPOCH":"2021-12-12T22:15:30.586176","LAUNCH_DATE":"2020-01-07","ECCENTRICITY":"0.00012730","COUNTRY_CODE":"US","MEAN_MOTION_DOT":"-0.00000817","PERIAPSIS":"546.352","CLASSIFICATION_TYPE":"U","TLE_LINE2":"2 44957  53.0563  54.8025 0001273  77.0037 283.1094 15.06393380107120","GP_ID":"191585314","SEMIMAJOR_AXIS":"6925.369","TLE_LINE1":"1 44957U 20001AV  21346.92743734 -.00000817  00000-0 -35974-4 0  9997","ELEMENT_SET_NO":"999","OBJECT_TYPE":"PAYLOAD","OBJECT_NAME":"STARLINK-1074","MEAN_MOTION_DDOT":"0.0000000000000","MEAN_MOTION":"15.06393380","MEAN_ANOMALY":"283.1094","CENTER_NAME":"EARTH","NORAD_CAT_ID":"44957","DECAY_DATE":null,"PERIOD":"95.593","RCS_SIZE":"LARGE","MEAN_ELEMENT_THEORY":"SGP4","BSTAR":"-0.00003597400000","FILE":"3238376","RA_OF_ASC_NODE":"54.8025","REV_AT_EPOCH":"10712"},{"PERIAPSIS":"546.383","MEAN_MOTION_DOT":"-0.00000821","COUNTRY_CODE":"US","ECCENTRICITY":"0.00012220","LAUNCH_DATE":"2020-01-07","TIME_SYSTEM":"UTC","EPOCH":"2021-12-12T14:39:02.815200","REF_FRAME":"TEME","OBJECT_ID":"2020-001AX","APOAPSIS":"548.076","SITE":"AFETR","ARG_OF_PERICENTER":"72.6289","EPHEMERIS_TYPE":"0","INCLINATION":"53.0565","RA_OF_ASC_NODE":"56.2291","FILE":"3238376","REV_AT_EPOCH":"10707","NORAD_CAT_ID":"44959","CENTER_NAME":"EARTH","MEAN_ELEMENT_THEORY":"SGP4","BSTAR":"-0.00003620600000","DECAY_DATE":null,"PERIOD":"95.592","RCS_SIZE":"LARGE","MEAN_ANOMALY":"287.4834","MEAN_MOTION":"15.06394716","OBJECT_TYPE":"PAYLOAD","MEAN_MOTION_DDOT":"0.0000000000000","OBJECT_NAME":"STARLINK-1076","TLE_LINE2":"2 44959  53.0565  56.2291 0001222  72.6289 287.4834 15.06394716107076","CLASSIFICATION_TYPE":"U","TLE_LINE1":"1 44959U 20001AX  21346.61044925 -.00000821  00000-0 -36206-4 0  9995","ELEMENT_SET_NO":"999","SEMIMAJOR_AXIS":"6925.365","GP_ID":"191584060"},{"MEAN_ANOMALY":"298.3519","MEAN_MOTION":"15.06397396","FILE":"3238376","RA_OF_ASC_NODE":"56.1870","REV_AT_EPOCH":"10708","CENTER_NAME":"EARTH","NORAD_CAT_ID":"44961","RCS_SIZE":"LARGE","DECAY_DATE":null,"PERIOD":"95.592","MEAN_ELEMENT_THEORY":"SGP4","BSTAR":"-0.00003953900000","TLE_LINE2":"2 44961  53.0556  56.1870 0001297  61.7601 298.3519 15.06397396107089","CLASSIFICATION_TYPE":"U","GP_ID":"191584312","TLE_LINE1":"1 44961U 20001AZ  21346.61781842 -.00000870  00000-0 -39539-4 0  9990","ELEMENT_SET_NO":"999","SEMIMAJOR_AXIS":"6925.357","OBJECT_TYPE":"PAYLOAD","OBJECT_NAME":"STARLINK-1080","MEAN_MOTION_DDOT":"0.0000000000000","ECCENTRICITY":"0.00012970","LAUNCH_DATE":"2020-01-07","MEAN_MOTION_DOT":"-0.00000870","PERIAPSIS":"546.323","COUNTRY_CODE":"US","ARG_OF_PERICENTER":"61.7601","SITE":"AFETR","INCLINATION":"53.0556","EPHEMERIS_TYPE":"0","TIME_SYSTEM":"UTC","EPOCH":"2021-12-12T14:49:39.511488","OBJECT_ID":"2020-001AZ","REF_FRAME":"TEME","APOAPSIS":"548.120"},{"TIME_SYSTEM":"UTC","EPOCH":"2021-12-12T22:02:52.343232","OBJECT_ID":"2020-001BB","REF_FRAME":"TEME","APOAPSIS":"540.269","ARG_OF_PERICENTER":"133.0998","SITE":"AFETR","INCLINATION":"53.0010","EPHEMERIS_TYPE":"0","MEAN_MOTION_DOT":"0.00003118","PERIAPSIS":"539.093","COUNTRY_CODE":"US","ECCENTRICITY":"0.00008500","LAUNCH_DATE":"2020-01-07","OBJECT_TYPE":"PAYLOAD","MEAN_MOTION_DDOT":"0.0000000000000","OBJECT_NAME":"STARLINK-1085","TLE_LINE2":"2 44963  53.0010  50.1992 0000850 133.0998 227.0062 15.08861195107909","CLASSIFICATION_TYPE":"U","GP_ID":"191585559","TLE_LINE1":"1 44963U 20001BB  21346.91866138  .00003118  00000-0  21378-3 0  9994","ELEMENT_SET_NO":"999","SEMIMAJOR_AXIS":"6917.816","FILE":"3238376","RA_OF_ASC_NODE":"50.1992","REV_AT_EPOCH":"10790","CENTER_NAME":"EARTH","NORAD_CAT_ID":"44963","DECAY_DATE":null,"RCS_SIZE":"LARGE","PERIOD":"95.436","BSTAR":"0.00021378000000","MEAN_ELEMENT_THEORY":"SGP4","MEAN_ANOMALY":"227.0062","MEAN_MOTION":"15.08861195"},{"ARG_OF_PERICENTER":"79.5700","SITE":"AFETR","EPHEMERIS_TYPE":"0","INCLINATION":"53.0548","REF_FRAME":"TEME","OBJECT_ID":"2020-001BC","APOAPSIS":"548.145","TIME_SYSTEM":"UTC","EPOCH":"2021-12-12T21:54:16.981920","LAUNCH_DATE":"2020-01-07","ECCENTRICITY":"0.00013020","COUNTRY_CODE":"US","PERIAPSIS":"546.342","MEAN_MOTION_DOT":"-0.00000767","CLASSIFICATION_TYPE":"U","TLE_LINE2":"2 44964  53.0548  54.8631 0001302  79.5700 280.5436 15.06390241107125","ELEMENT_SET_NO":"999","TLE_LINE1":"1 44964U 20001BC  21346.91269655 -.00000767  00000-0 -32595-4 0  9999","SEMIMAJOR_AXIS":"6925.378","GP_ID":"191585815","OBJECT_TYPE":"PAYLOAD","MEAN_MOTION_DDOT":"0.0000000000000","OBJECT_NAME":"STARLINK-1086","MEAN_MOTION":"15.06390241","MEAN_ANOMALY":"280.5436","NORAD_CAT_ID":"44964","CENTER_NAME":"EARTH","MEAN_ELEMENT_THEORY":"SGP4","BSTAR":"-0.00003259500000","PERIOD":"95.593","DECAY_DATE":null,"RCS_SIZE":"LARGE","RA_OF_ASC_NODE":"54.8631","FILE":"3238376","REV_AT_EPOCH":"10712"},{"COUNTRY_CODE":"US","PERIAPSIS":"546.535","MEAN_MOTION_DOT":"0.00000670","LAUNCH_DATE":"2020-01-07","ECCENTRICITY":"0.00010130","REF_FRAME":"TEME","OBJECT_ID":"2020-001BE","APOAPSIS":"547.938","TIME_SYSTEM":"UTC","EPOCH":"2021-12-12T22:26:08.253600","SITE":"AFETR","ARG_OF_PERICENTER":"83.1709","EPHEMERIS_TYPE":"0","INCLINATION":"53.0559","NORAD_CAT_ID":"44966","CENTER_NAME":"EARTH","MEAN_ELEMENT_THEORY":"SGP4","BSTAR":"0.00006387900000","DECAY_DATE":null,"PERIOD":"95.593","RCS_SIZE":"LARGE","RA_OF_ASC_NODE":"54.7614","FILE":"3238376","REV_AT_EPOCH":"10712","MEAN_MOTION":"15.06392604","MEAN_ANOMALY":"276.9395","OBJECT_TYPE":"PAYLOAD","OBJECT_NAME":"STARLINK-1088","MEAN_MOTION_DDOT":"0.0000000000000","TLE_LINE2":"2 44966  53.0559  54.7614 0001013  83.1709 276.9395 15.06392604107126","CLASSIFICATION_TYPE":"U","SEMIMAJOR_AXIS":"6925.371","TLE_LINE1":"1 44966U 20001BE  21346.93481775  .00000670  00000-0  63879-4 0  9992","ELEMENT_SET_NO":"999","GP_ID":"191584561"},{"MEAN_MOTION_DOT":"-0.00001145","PERIAPSIS":"546.493","COUNTRY_CODE":"US","ECCENTRICITY":"0.00010720","LAUNCH_DATE":"2020-01-07","EPOCH":"2021-12-12T21:22:26.217408","TIME_SYSTEM":"UTC","APOAPSIS":"547.978","OBJECT_ID":"2020-001BF","REF_FRAME":"TEME","INCLINATION":"53.0563","EPHEMERIS_TYPE":"0","SITE":"AFETR","ARG_OF_PERICENTER":"72.2939","REV_AT_EPOCH":"10712","FILE":"3238376","RA_OF_ASC_NODE":"54.9672","DECAY_DATE":null,"PERIOD":"95.593","RCS_SIZE":"LARGE","MEAN_ELEMENT_THEORY":"SGP4","BSTAR":"-0.00005803600000","CENTER_NAME":"EARTH","NORAD_CAT_ID":"44967","MEAN_ANOMALY":"287.8167","MEAN_MOTION":"15.06392830","MEAN_MOTION_DDOT":"0.0000000000000","OBJECT_NAME":"STARLINK-1089","OBJECT_TYPE":"PAYLOAD","GP_ID":"191584813","TLE_LINE1":"1 44967U 20001BF  21346.89058122 -.00001145  00000-0 -58036-4 0  9993","SEMIMAJOR_AXIS":"6925.371","ELEMENT_SET_NO":"999","TLE_LINE2":"2 44967  53.0563  54.9672 0001072  72.2939 287.8167 15.06392830107126","CLASSIFICATION_TYPE":"U"},{"OBJECT_NAME":"STARLINK-1090","MEAN_MOTION_DDOT":"0.0000000000000","OBJECT_TYPE":"PAYLOAD","ELEMENT_SET_NO":"999","TLE_LINE1":"1 44968U 20001BG  21346.88689821 -.00000833  00000-0 -37010-4 0  9991","SEMIMAJOR_AXIS":"6925.337","GP_ID":"191585059","TLE_LINE2":"2 44968  53.0559  54.9767 0001288  74.0206 286.0925 15.06403765107126","CLASSIFICATION_TYPE":"U","REV_AT_EPOCH":"10712","RA_OF_ASC_NODE":"54.9767","FILE":"3238376","BSTAR":"-0.00003701000000","MEAN_ELEMENT_THEORY":"SGP4","RCS_SIZE":"LARGE","DECAY_DATE":null,"PERIOD":"95.592","NORAD_CAT_ID":"44968","CENTER_NAME":"EARTH","MEAN_ANOMALY":"286.0925","MEAN_MOTION":"15.06403765","EPOCH":"2021-12-12T21:17:08.005344","TIME_SYSTEM":"UTC","APOAPSIS":"548.094","REF_FRAME":"TEME","OBJECT_ID":"2020-001BG","EPHEMERIS_TYPE":"0","INCLINATION":"53.0559","ARG_OF_PERICENTER":"74.0206","SITE":"AFETR","PERIAPSIS":"546.310","MEAN_MOTION_DOT":"-0.00000833","COUNTRY_CODE":"US","ECCENTRICITY":"0.00012880","LAUNCH_DATE":"2020-01-07"},{"CLASSIFICATION_TYPE":"U","TLE_LINE2":"2 44969  53.0559  56.2009 0001410  81.0509 279.0639 15.06393275107074","TLE_LINE1":"1 44969U 20001BH  21346.61413438  .00001247  00000-0  10262-3 0  9999","SEMIMAJOR_AXIS":"6925.369","ELEMENT_SET_NO":"999","GP_ID":"191585315","OBJECT_TYPE":"PAYLOAD","OBJECT_NAME":"STARLINK-1092","MEAN_MOTION_DDOT":"0.0000000000000","MEAN_MOTION":"15.06393275","MEAN_ANOMALY":"279.0639","NORAD_CAT_ID":"44969","CENTER_NAME":"EARTH","BSTAR":"0.00010262000000","MEAN_ELEMENT_THEORY":"SGP4","RCS_SIZE":"LARGE","DECAY_DATE":null,"PERIOD":"95.593","RA_OF_ASC_NODE":"56.2009","FILE":"3238376","REV_AT_EPOCH":"10707","ARG_OF_PERICENTER":"81.0509","SITE":"AFETR","EPHEMERIS_TYPE":"0","INCLINATION":"53.0559","REF_FRAME":"TEME","OBJECT_ID":"2020-001BH","APOAPSIS":"548.211","TIME_SYSTEM":"UTC","EPOCH":"2021-12-12T14:44:21.210432","LAUNCH_DATE":"2020-01-07","ECCENTRICITY":"0.00014100","COUNTRY_CODE":"US","PERIAPSIS":"546.258","MEAN_MOTION_DOT":"0.00001247"},{"PERIAPSIS":"546.437","MEAN_MOTION_DOT":"0.00000665","COUNTRY_CODE":"US","ECCENTRICITY":"0.00011060","LAUNCH_DATE":"2020-01-07","EPOCH":"2021-12-12T22:10:11.544672","TIME_SYSTEM":"UTC","APOAPSIS":"547.969","REF_FRAME":"TEME","OBJECT_ID":"2020-001BJ","EPHEMERIS_TYPE":"0","INCLINATION":"53.0566","SITE":"AFETR","ARG_OF_PERICENTER":"84.7980","REV_AT_EPOCH":"10711","RA_OF_ASC_NODE":"54.8215","FILE":"3238376","MEAN_ELEMENT_THEORY":"SGP4","BSTAR":"0.00006355100000","RCS_SIZE":"LARGE","DECAY_DATE":null,"PERIOD":"95.592","NORAD_CAT_ID":"44970","CENTER_NAME":"EARTH","MEAN_ANOMALY":"275.3135","MEAN_MOTION":"15.06403324","OBJECT_NAME":"STARLINK-1093","MEAN_MOTION_DDOT":"0.0000000000000","OBJECT_TYPE":"PAYLOAD","TLE_LINE1":"1 44970U 20001BJ  21346.92374473  .00000665  00000-0  63551-4 0  9993","ELEMENT_SET_NO":"999","SEMIMAJOR_AXIS":"6925.338","GP_ID":"191584061","TLE_LINE2":"2 44970  53.0566  54.8215 0001106  84.7980 275.3135 15.06403324107114","CLASSIFICATION_TYPE":"U"}];
